{"type": "FeatureCollection", "features": [ {"type": "Feature", "properties": {"norad_id": 36258, "name": "FENGYUN 1C DEB", "group": "fengyun-1c-debris", "lat": 47.663220504100686, "lon": 5.817899715828383, "alt_km": 613.8121633079854, "timestamp": "2025-12-12T11:38:31.700284+00:00", "meta": {"OBJECT_NAME": "FENGYUN 1C DEB", "OBJECT_ID": "1999-025DWK", "EPOCH": "2025-12-11T07:44:28.037472", "MEAN_MOTION": 14.74838195, "ECCENTRICITY": 0.01735534, "INCLINATION": 99.0879, "RA_OF_ASC_NODE": 14.632, "ARG_OF_PERICENTER": 130.0667, "MEAN_ANOMALY": 231.5906, "EPHEMERIS_TYPE": 0, "CLASSIFICATION_TYPE": "U", "NORAD_CAT_ID": 36258, "ELEMENT_SET_NO": 999, "REV_AT_EPOCH": 90801, "BSTAR": 0.00051236184, "MEAN_MOTION_DOT": 4.311e-05, "MEAN_MOTION_DDOT": 0}, "tle": {"line1": "1 36258U 99025DWK 25345.32254673  .00004311  00000+0  51236-3 0  9998", "line2": "2 36258  99.0879  14.6320 0173553 130.0667 231.5906 14.74838195908015"}}, "geometry": {"type": "Point", "coordinates": [5.817899715828383, 47.663220504100686]}}, {"type": "Feature", "properties": {"norad_id": 36260, "name": "FENGYUN 1C DEB", "group": "fengyun-1c-debris", "lat": -74.16354708114025, "lon": 136.16688641020514, "alt_km": 837.5922575209224, "timestamp": "2025-12-12T11:38:31.700295+00:00", "meta": {"OBJECT_NAME": "FENGYUN 1C DEB", "OBJECT_ID": "1999-025DWM", "EPOCH": "2025-12-11T10:40:46.930368", "MEAN_MOTION": 14.15371689, "ECCENTRICITY": 0.0014965, "INCLINATION": 98.6615, "RA_OF_ASC_NODE": 347.6617, "ARG_OF_PERICENTER": 253.4833, "MEAN_ANOMALY": 106.4697, "EPHEMERIS_TYPE": 0, "CLASSIFICATION_TYPE": "U", "NORAD_CAT_ID": 36260, "ELEMENT_SET_NO": 999, "REV_AT_EPOCH": 87790, "BSTAR": 0.00027549941, "MEAN_MOTION_DOT": 4.95e-06, "MEAN_MOTION_DDOT": 0}, "tle": {"line1": "1 36260U 99025DWM 25345.44498762  .00000495  00000+0  27550-3 0  9994", "line2": "2 36260  98.6615 347.6617 0014965 253.4833 106.4697 14.15371689877900"}}, "geometry": {"type": "Point", "coordinates": [136.16688641020514, -74.16354708114025]}}, {"type": "Feature", "properties": {"norad_id": 36261, "name": "FENGYUN 1C DEB", "group": "fengyun-1c-debris", "lat": 75.59772484663931, "lon": -172.89852310781387, "alt_km": 817.2472143825053, "timestamp": "2025-12-12T11:38:31.700305+00:00", "meta": {"OBJECT_NAME": "FENGYUN 1C DEB", "OBJECT_ID": "1999-025DWN", "EPOCH": "2025-12-10T12:51:44.703648", "MEAN_MOTION": 13.45476909, "ECCENTRICITY": 0.0355433, "INCLINATION": 101.3651, "RA_OF_ASC_NODE": 236.4477, "ARG_OF_PERICENTER": 80.3414, "MEAN_ANOMALY": 283.7668, "EPHEMERIS_TYPE": 0, "CLASSIFICATION_TYPE": "U", "NORAD_CAT_ID": 36261, "ELEMENT_SET_NO": 999, "REV_AT_EPOCH": 84403, "BSTAR": 0.00073435, "MEAN_MOTION_DOT": 5.84e-06, "MEAN_MOTION_DDOT": 0}, "tle": {"line1": "1 36261U 99025DWN 25344.53593407  .00000584  00000+0  73435-3 0  9998", "line2": "2 36261 101.3651 236.4477 0355433  80.3414 283.7668 13.45476909844030"}}, "geometry": {"type": "Point", "coordinates": [-172.89852310781387, 75.59772484663931]}}, {"type": "Feature", "properties": {"norad_id": 36262, "name": "FENGYUN 1C DEB", "group": "fengyun-1c-debris", "lat": 39.45941400651203, "lon": -140.4803594017512, "alt_km": 819.7406906280548, "timestamp": "2025-12-12T11:38:31.700315+00:00", "meta": {"OBJECT_NAME": "FENGYUN 1C DEB", "OBJECT_ID": "1999-025DWP", "EPOCH": "2025-12-08T09:54:26.531712", "MEAN_MOTION": 14.27796215, "ECCENTRICITY": 0.00599528, "INCLINATION": 98.9618, "RA_OF_ASC_NODE": 222.8075, "ARG_OF_PERICENTER": 288.1373, "MEAN_ANOMALY": 71.3285, "EPHEMERIS_TYPE": 0, "CLASSIFICATION_TYPE": "U", "NORAD_CAT_ID": 36262, "ELEMENT_SET_NO": 999, "REV_AT_EPOCH": 89435, "BSTAR": 0.0005578287, "MEAN_MOTION_DOT": 1.358e-05, "MEAN_MOTION_DDOT": 0}, "tle": {"line1": "1 36262U 99025DWP 25342.41280708  .00001358  00000+0  55783-3 0  9997", "line2": "2 36262  98.9618 222.8075 0059952 288.1373  71.3285 14.27796215894359"}}, "geometry": {"type": "Point", "coordinates": [-140.4803594017512, 39.45941400651203]}}, {"type": "Feature", "properties": {"norad_id": 36263, "name": "FENGYUN 1C DEB", "group": "fengyun-1c-debris", "lat": -13.561361268611801, "lon": 45.328338319827246, "alt_km": 736.5558832878733, "timestamp": "2025-12-12T11:38:31.700325+00:00", "meta": {"OBJECT_NAME": "FENGYUN 1C DEB", "OBJECT_ID": "1999-025DWQ", "EPOCH": "2025-12-11T09:49:43.311648", "MEAN_MOTION": 14.456173, "ECCENTRICITY": 0.00362114, "INCLINATION": 98.9987, "RA_OF_ASC_NODE": 226.3791, "ARG_OF_PERICENTER": 269.226, "MEAN_ANOMALY": 90.478, "EPHEMERIS_TYPE": 0, "CLASSIFICATION_TYPE": "U", "NORAD_CAT_ID": 36263, "ELEMENT_SET_NO": 999, "REV_AT_EPOCH": 87966, "BSTAR": 0.0037241412, "MEAN_MOTION_DOT": 0.00013243, "MEAN_MOTION_DDOT": 0}, "tle": {"line1": "1 36263U 99025DWQ 25345.40952907  .00013243  00000+0  37241-2 0  9991", "line2": "2 36263  98.9987 226.3791 0036211 269.2260  90.4780 14.45617300879667"}}, "geometry": {"type": "Point", "coordinates": [45.328338319827246, -13.561361268611801]}}, {"type": "Feature", "properties": {"norad_id": 36267, "name": "FENGYUN 1C DEB", "group": "fengyun-1c-debris", "lat": 80.22400985720651, "lon": -127.05450622755136, "alt_km": 908.0974263208263, "timestamp": "2025-12-12T11:38:31.700335+00:00", "meta": {"OBJECT_NAME": "FENGYUN 1C DEB", "OBJECT_ID": "1999-025DWU", "EPOCH": "2025-12-11T08:41:27.655296", "MEAN_MOTION": 14.09091758, "ECCENTRICITY": 0.01263004, "INCLINATION": 98.5598, "RA_OF_ASC_NODE": 292.8218, "ARG_OF_PERICENTER": 214.5137, "MEAN_ANOMALY": 298.6282, "EPHEMERIS_TYPE": 0, "CLASSIFICATION_TYPE": "U", "NORAD_CAT_ID": 36267, "ELEMENT_SET_NO": 999, "REV_AT_EPOCH": 86510, "BSTAR": 0.0016467639, "MEAN_MOTION_DOT": 3.034e-05, "MEAN_MOTION_DDOT": 0}, "tle": {"line1": "1 36267U 99025DWU 25345.36212564  .00003034  00000+0  16468-2 0  9993", "line2": "2 36267  98.5598 292.8218 0126300 214.5137 298.6282 14.09091758865108"}}, "geometry": {"type": "Point", "coordinates": [-127.05450622755136, 80.22400985720651]}}, {"type": "Feature", "properties": {"norad_id": 36269, "name": "FENGYUN 1C DEB", "group": "fengyun-1c-debris", "lat": 0.11942405949675998, "lon": 108.45337628911813, "alt_km": 832.1658201758028, "timestamp": "2025-12-12T11:38:31.700345+00:00", "meta": {"OBJECT_NAME": "FENGYUN 1C DEB", "OBJECT_ID": "1999-025DWW", "EPOCH": "2025-12-09T13:47:06.134784", "MEAN_MOTION": 14.27013295, "ECCENTRICITY": 0.0233384, "INCLINATION": 99.1074, "RA_OF_ASC_NODE": 285.4023, "ARG_OF_PERICENTER": 288.9499, "MEAN_ANOMALY": 68.6519, "EPHEMERIS_TYPE": 0, "CLASSIFICATION_TYPE": "U", "NORAD_CAT_ID": 36269, "ELEMENT_SET_NO": 999, "REV_AT_EPOCH": 87671, "BSTAR": 0.0013246, "MEAN_MOTION_DOT": 4.249e-05, "MEAN_MOTION_DDOT": 0}, "tle": {"line1": "1 36269U 99025DWW 25343.57437656  .00004249  00000+0  13246-2 0  9997", "line2": "2 36269  99.1074 285.4023 0233384 288.9499  68.6519 14.27013295876712"}}, "geometry": {"type": "Point", "coordinates": [108.45337628911813, 0.11942405949675998]}}, {"type": "Feature", "properties": {"norad_id": 36272, "name": "FENGYUN 1C DEB", "group": "fengyun-1c-debris", "lat": -78.36352351705992, "lon": -85.83325146180589, "alt_km": 722.0760404838547, "timestamp": "2025-12-12T11:38:31.700355+00:00", "meta": {"OBJECT_NAME": "FENGYUN 1C DEB", "OBJECT_ID": "1999-025DWZ", "EPOCH": "2025-12-11T08:54:52.780608", "MEAN_MOTION": 14.17247938, "ECCENTRICITY": 0.01679178, "INCLINATION": 99.1372, "RA_OF_ASC_NODE": 221.6218, "ARG_OF_PERICENTER": 272.0385, "MEAN_ANOMALY": 86.1567, "EPHEMERIS_TYPE": 0, "CLASSIFICATION_TYPE": "U", "NORAD_CAT_ID": 36272, "ELEMENT_SET_NO": 999, "REV_AT_EPOCH": 63597, "BSTAR": 0.00082726779, "MEAN_MOTION_DOT": 1.87e-05, "MEAN_MOTION_DDOT": 0}, "tle": {"line1": "1 36272U 99025DWZ 25345.37144422  .00001870  00000+0  82727-3 0  9995", "line2": "2 36272  99.1372 221.6218 0167917 272.0385  86.1567 14.17247938635972"}}, "geometry": {"type": "Point", "coordinates": [-85.83325146180589, -78.36352351705992]}}, {"type": "Feature", "properties": {"norad_id": 36273, "name": "FENGYUN 1C DEB", "group": "fengyun-1c-debris", "lat": -76.51502807789741, "lon": -9.0018181876406, "alt_km": 842.2596324220394, "timestamp": "2025-12-12T11:38:31.700365+00:00", "meta": {"OBJECT_NAME": "FENGYUN 1C DEB", "OBJECT_ID": "1999-025DXA", "EPOCH": "2025-12-10T21:07:00.418080", "MEAN_MOTION": 14.16564043, "ECCENTRICITY": 0.0096501, "INCLINATION": 99.6045, "RA_OF_ASC_NODE": 214.1863, "ARG_OF_PERICENTER": 353.8475, "MEAN_ANOMALY": 6.1504, "EPHEMERIS_TYPE": 0, "CLASSIFICATION_TYPE": "U", "NORAD_CAT_ID": 36273, "ELEMENT_SET_NO": 999, "REV_AT_EPOCH": 66207, "BSTAR": 0.00042955, "MEAN_MOTION_DOT": 8.45e-06, "MEAN_MOTION_DDOT": 0}, "tle": {"line1": "1 36273U 99025DXA 25344.87986595  .00000845  00000+0  42955-3 0  9995", "line2": "2 36273  99.6045 214.1863 0096501 353.8475   6.1504 14.16564043662078"}}, "geometry": {"type": "Point", "coordinates": [-9.0018181876406, -76.51502807789741]}}, {"type": "Feature", "properties": {"norad_id": 36274, "name": "FENGYUN 1C DEB", "group": "fengyun-1c-debris", "lat": -80.85451393357181, "lon": 151.3708723024058, "alt_km": 786.0682735497721, "timestamp": "2025-12-12T11:38:31.700375+00:00", "meta": {"OBJECT_NAME": "FENGYUN 1C DEB", "OBJECT_ID": "1999-025DXB", "EPOCH": "2025-12-09T11:35:55.514688", "MEAN_MOTION": 14.23402311, "ECCENTRICITY": 0.00622561, "INCLINATION": 99.139, "RA_OF_ASC_NODE": 57.5181, "ARG_OF_PERICENTER": 239.4806, "MEAN_ANOMALY": 136.1937, "EPHEMERIS_TYPE": 0, "CLASSIFICATION_TYPE": "U", "NORAD_CAT_ID": 36274, "ELEMENT_SET_NO": 999, "REV_AT_EPOCH": 62939, "BSTAR": 0.0044809329, "MEAN_MOTION_DOT": 0.00010342, "MEAN_MOTION_DDOT": 0}, "tle": {"line1": "1 36274U 99025DXB 25343.48328142  .00010342  00000+0  44809-2 0  9992", "line2": "2 36274  99.1390  57.5181 0062256 239.4806 136.1937 14.23402311629395"}}, "geometry": {"type": "Point", "coordinates": [151.3708723024058, -80.85451393357181]}}]}